EUTELSAT 8 WEST B       
1 40875U 15039B   25337.77961347 -.00000048  00000+0  00000+0 0  9997
2 40875   0.0656 348.0497 0004136 266.9751  90.5072  1.00271603 37696
EUTELSAT 9B             
1 41310U 16005A   25338.00299572  .00000078  00000+0  00000+0 0  9999
2 41310   0.0674  75.3023 0004951 189.9552 177.8910  1.00271471 36168
EUTELSAT 65 WEST A      
1 41382U 16014A   25338.05958940 -.00000260  00000+0  00000+0 0  9998
2 41382   0.0499 346.9659 0002819 273.4598 128.9647  1.00270418 35572
EUTELSAT 117 WEST B     
1 41589U 16038B   25338.10991117  .00000005  00000+0  00000+0 0  9998
2 41589   0.0084 141.8858 0000162 294.8653 279.0065  1.00269930 34705
EUTELSAT 172B           
1 42741U 17029B   25337.72127940  .00000012  00000+0  00000+0 0  9990
2 42741   0.0029  53.9145 0000190 175.2679 275.2829  1.00271292 31772
EUTELSAT 7C             
1 44334U 19034B   25338.03239068  .00000065  00000+0  00000+0 0  9996
2 44334   0.0762 180.0814 0003447  56.4016 215.2751  1.00269518  4871
EUTELSAT 5 WEST B       
1 44624U 19067A   25337.98933623 -.00000025  00000+0  00000+0 0  9992
2 44624   0.0700 329.4641 0003730 284.9373 169.8486  1.00272817 22483
EUTELSAT KONNECT        
1 45027U 20005B   25338.00264904  .00000066  00000+0  00000+0 0  9991
2 45027   0.0699  99.0395 0001812 186.7102 155.4717  1.00268785 22366
